{"type": "FeatureCollection", "features": [ {"type": "Feature", "properties": {"norad_id": 38779, "name": "GSAT-10 (GAGAN/PRN 128)", "group": "gnss", "lat": 0.055194208540271066, "lon": -12.372556288839318, "alt_km": 35793.131260122726, "timestamp": "2025-12-22T11:33:20.682148+00:00", "meta": {"OBJECT_NAME": "GSAT-10 (GAGAN/PRN 128)", "OBJECT_ID": "2012-051B", "EPOCH": "2025-12-22T03:17:19.868928", "MEAN_MOTION": 1.00271835, "ECCENTRICITY": 0.0002358, "INCLINATION": 0.0694, "RA_OF_ASC_NODE": 263.8146, "ARG_OF_PERICENTER": 219.1128, "MEAN_ANOMALY": 100.3837, "EPHEMERIS_TYPE": 0, "CLASSIFICATION_TYPE": "U", "NORAD_CAT_ID": 38779, "ELEMENT_SET_NO": 999, "REV_AT_EPOCH": 4832, "BSTAR": 0, "MEAN_MOTION_DOT": -1.43e-06, "MEAN_MOTION_DDOT": 0}, "tle": {"line1": "1 38779U 12051B   25356.13703552 -.00000143  00000+0  00000+0 0  9997", "line2": "2 38779   0.0694 263.8146 0002358 219.1128 100.3837  1.00271835 48323"}}, "geometry": {"type": "Point", "coordinates": [-12.372556288839318, 0.055194208540271066]}}, {"type": "Feature", "properties": {"norad_id": 38833, "name": "GPS BIIF-3  (PRN 24)", "group": "gnss", "lat": 45.6985091917605, "lon": -78.38133584132913, "alt_km": 19890.12733178241, "timestamp": "2025-12-22T11:33:20.682162+00:00", "meta": {"OBJECT_NAME": "GPS BIIF-3  (PRN 24)", "OBJECT_ID": "2012-053A", "EPOCH": "2025-12-21T19:48:37.678176", "MEAN_MOTION": 2.0056507, "ECCENTRICITY": 0.0176015, "INCLINATION": 53.5594, "RA_OF_ASC_NODE": 150.8666, "ARG_OF_PERICENTER": 64.1278, "MEAN_ANOMALY": 297.6511, "EPHEMERIS_TYPE": 0, "CLASSIFICATION_TYPE": "U", "NORAD_CAT_ID": 38833, "ELEMENT_SET_NO": 999, "REV_AT_EPOCH": 9588, "BSTAR": 0, "MEAN_MOTION_DOT": 6.3e-07, "MEAN_MOTION_DDOT": 0}, "tle": {"line1": "1 38833U 12053A   25355.82543609  .00000063  00000+0  00000+0 0  9990", "line2": "2 38833  53.5594 150.8666 0176015  64.1278 297.6511  2.00565070 95884"}}, "geometry": {"type": "Point", "coordinates": [-78.38133584132913, 45.6985091917605]}}, {"type": "Feature", "properties": {"norad_id": 38857, "name": "GSAT0103 (GALILEO-FM3)", "group": "gnss", "lat": 55.3804485683021, "lon": -154.48478603951747, "alt_km": 23224.26788961632, "timestamp": "2025-12-22T11:33:20.682176+00:00", "meta": {"OBJECT_NAME": "GSAT0103 (GALILEO-FM3)", "OBJECT_ID": "2012-055A", "EPOCH": "2025-12-18T05:17:11.481792", "MEAN_MOTION": 1.70473412, "ECCENTRICITY": 0.00028558, "INCLINATION": 55.6954, "RA_OF_ASC_NODE": 106.5161, "ARG_OF_PERICENTER": 269.0808, "MEAN_ANOMALY": 90.8455, "EPHEMERIS_TYPE": 0, "CLASSIFICATION_TYPE": "U", "NORAD_CAT_ID": 38857, "ELEMENT_SET_NO": 999, "REV_AT_EPOCH": 8192, "BSTAR": 0, "MEAN_MOTION_DOT": -7e-08, "MEAN_MOTION_DDOT": 0}, "tle": {"line1": "1 38857U 12055A   25352.22027178 -.00000007  00000+0  00000+0 0  9996", "line2": "2 38857  55.6954 106.5161 0002855 269.0808  90.8455  1.70473412 81920"}}, "geometry": {"type": "Point", "coordinates": [-154.48478603951747, 55.3804485683021]}}, {"type": "Feature", "properties": {"norad_id": 38953, "name": "BEIDOU-2 G6 (C02)", "group": "gnss", "lat": -3.9775392011831388, "lon": -11.48059647333043, "alt_km": 35754.710408778126, "timestamp": "2025-12-22T11:33:20.682188+00:00", "meta": {"OBJECT_NAME": "BEIDOU-2 G6 (C02)", "OBJECT_ID": "2012-059A", "EPOCH": "2025-12-21T20:26:44.535840", "MEAN_MOTION": 1.00268615, "ECCENTRICITY": 0.0008286, "INCLINATION": 3.971, "RA_OF_ASC_NODE": 75.4173, "ARG_OF_PERICENTER": 292.3121, "MEAN_ANOMALY": 113.552, "EPHEMERIS_TYPE": 0, "CLASSIFICATION_TYPE": "U", "NORAD_CAT_ID": 38953, "ELEMENT_SET_NO": 999, "REV_AT_EPOCH": 4813, "BSTAR": 0, "MEAN_MOTION_DOT": -1.54e-06, "MEAN_MOTION_DDOT": 0}, "tle": {"line1": "1 38953U 12059A   25355.85190435 -.00000154  00000+0  00000+0 0  9999", "line2": "2 38953   3.9710  75.4173 0008286 292.3121 113.5520  1.00268615 48133"}}, "geometry": {"type": "Point", "coordinates": [-11.48059647333043, -3.9775392011831388]}}, {"type": "Feature", "properties": {"norad_id": 38977, "name": "LUCH 5B (SDCM/PRN 125)", "group": "gnss", "lat": -2.898702678161068, "lon": -111.94814231201502, "alt_km": 35758.45562856718, "timestamp": "2025-12-22T11:33:20.682199+00:00", "meta": {"OBJECT_NAME": "LUCH 5B (SDCM/PRN 125)", "OBJECT_ID": "2012-061A", "EPOCH": "2025-12-21T23:23:28.048416", "MEAN_MOTION": 1.00272192, "ECCENTRICITY": 0.0006605, "INCLINATION": 10.0999, "RA_OF_ASC_NODE": 51.617, "ARG_OF_PERICENTER": 195.6593, "MEAN_ANOMALY": 178.05, "EPHEMERIS_TYPE": 0, "CLASSIFICATION_TYPE": "U", "NORAD_CAT_ID": 38977, "ELEMENT_SET_NO": 999, "REV_AT_EPOCH": 4783, "BSTAR": 0, "MEAN_MOTION_DOT": -1.21e-06, "MEAN_MOTION_DDOT": 0}, "tle": {"line1": "1 38977U 12061A   25355.97463019 -.00000121  00000+0  00000+0 0  9996", "line2": "2 38977  10.0999  51.6170 0006605 195.6593 178.0500  1.00272192 47836"}}, "geometry": {"type": "Point", "coordinates": [-111.94814231201502, -2.898702678161068]}}, {"type": "Feature", "properties": {"norad_id": 39155, "name": "COSMOS 2485 (747)", "group": "gnss", "lat": 8.87445875088297, "lon": 83.66364469300102, "alt_km": 19177.521171336535, "timestamp": "2025-12-22T11:33:20.682211+00:00", "meta": {"OBJECT_NAME": "COSMOS 2485 (747)", "OBJECT_ID": "2013-019A", "EPOCH": "2025-12-20T02:56:15.241632", "MEAN_MOTION": 2.1310322, "ECCENTRICITY": 0.0024876, "INCLINATION": 65.3174, "RA_OF_ASC_NODE": 79.6189, "ARG_OF_PERICENTER": 230.2075, "MEAN_ANOMALY": 129.6042, "EPHEMERIS_TYPE": 0, "CLASSIFICATION_TYPE": "U", "NORAD_CAT_ID": 39155, "ELEMENT_SET_NO": 999, "REV_AT_EPOCH": 9846, "BSTAR": 0, "MEAN_MOTION_DOT": -2e-07, "MEAN_MOTION_DDOT": 0}, "tle": {"line1": "1 39155U 13019A   25354.12239863 -.00000020  00000+0  00000+0 0  9991", "line2": "2 39155  65.3174  79.6189 0024876 230.2075 129.6042  2.13103220 98462"}}, "geometry": {"type": "Point", "coordinates": [83.66364469300102, 8.87445875088297]}}, {"type": "Feature", "properties": {"norad_id": 39166, "name": "GPS BIIF-4  (PRN 27)", "group": "gnss", "lat": -26.725298918859966, "lon": 117.07774472346713, "alt_km": 20539.619883586372, "timestamp": "2025-12-22T11:33:20.682222+00:00", "meta": {"OBJECT_NAME": "GPS BIIF-4  (PRN 27)", "OBJECT_ID": "2013-023A", "EPOCH": "2025-12-21T04:35:02.241888", "MEAN_MOTION": 2.00564674, "ECCENTRICITY": 0.0138431, "INCLINATION": 54.6447, "RA_OF_ASC_NODE": 276.2247, "ARG_OF_PERICENTER": 48.7169, "MEAN_ANOMALY": 312.5052, "EPHEMERIS_TYPE": 0, "CLASSIFICATION_TYPE": "U", "NORAD_CAT_ID": 39166, "ELEMENT_SET_NO": 999, "REV_AT_EPOCH": 9231, "BSTAR": 0, "MEAN_MOTION_DOT": -1.7e-07, "MEAN_MOTION_DDOT": 0}, "tle": {"line1": "1 39166U 13023A   25355.19099817 -.00000017  00000+0  00000+0 0  9995", "line2": "2 39166  54.6447 276.2247 0138431  48.7169 312.5052  2.00564674 92319"}}, "geometry": {"type": "Point", "coordinates": [117.07774472346713, -26.725298918859966]}}, {"type": "Feature", "properties": {"norad_id": 39199, "name": "IRNSS-1A", "group": "gnss", "lat": -33.643169684202874, "lon": -43.8581669055902, "alt_km": 35712.866728951194, "timestamp": "2025-12-22T11:33:20.682236+00:00", "meta": {"OBJECT_NAME": "IRNSS-1A", "OBJECT_ID": "2013-034A", "EPOCH": "2025-12-18T18:41:43.776960", "MEAN_MOTION": 1.00272479, "ECCENTRICITY": 0.0024472, "INCLINATION": 35.3183, "RA_OF_ASC_NODE": 66.4661, "ARG_OF_PERICENTER": 211.0525, "MEAN_ANOMALY": 145.3931, "EPHEMERIS_TYPE": 0, "CLASSIFICATION_TYPE": "U", "NORAD_CAT_ID": 39199, "ELEMENT_SET_NO": 999, "REV_AT_EPOCH": 4555, "BSTAR": 0, "MEAN_MOTION_DOT": 6.5e-07, "MEAN_MOTION_DDOT": 0}, "tle": {"line1": "1 39199U 13034A   25352.77897890  .00000065  00000+0  00000+0 0  9993", "line2": "2 39199  35.3183  66.4661 0024472 211.0525 145.3931  1.00272479 45557"}}, "geometry": {"type": "Point", "coordinates": [-43.8581669055902, -33.643169684202874]}}, {"type": "Feature", "properties": {"norad_id": 39533, "name": "GPS BIIF-5  (PRN 30)", "group": "gnss", "lat": -27.706775529966464, "lon": -0.675358103770149, "alt_km": 19979.642275772516, "timestamp": "2025-12-22T11:33:20.682247+00:00", "meta": {"OBJECT_NAME": "GPS BIIF-5  (PRN 30)", "OBJECT_ID": "2014-008A", "EPOCH": "2025-12-20T16:28:24.690432", "MEAN_MOTION": 2.00548724, "ECCENTRICITY": 0.0079574, "INCLINATION": 53.6246, "RA_OF_ASC_NODE": 156.6308, "ARG_OF_PERICENTER": 226.1122, "MEAN_ANOMALY": 133.2164, "EPHEMERIS_TYPE": 0, "CLASSIFICATION_TYPE": "U", "NORAD_CAT_ID": 39533, "ELEMENT_SET_NO": 999, "REV_AT_EPOCH": 8610, "BSTAR": 0, "MEAN_MOTION_DOT": 6.5e-07, "MEAN_MOTION_DDOT": 0}, "tle": {"line1": "1 39533U 14008A   25354.68639688  .00000065  00000+0  00000+0 0  9998", "line2": "2 39533  53.6246 156.6308 0079574 226.1122 133.2164  2.00548724 86105"}}, "geometry": {"type": "Point", "coordinates": [-0.675358103770149, -27.706775529966464]}}, {"type": "Feature", "properties": {"norad_id": 39617, "name": "ASTRA 5B (EGNOS/PRN 123)", "group": "gnss", "lat": -0.067192345247856, "lon": -71.87692498093129, "alt_km": 35767.84930751296, "timestamp": "2025-12-22T11:33:20.682261+00:00", "meta": {"OBJECT_NAME": "ASTRA 5B (EGNOS/PRN 123)", "OBJECT_ID": "2014-011B", "EPOCH": "2025-12-21T21:52:06.796128", "MEAN_MOTION": 1.0027009, "ECCENTRICITY": 0.0004469, "INCLINATION": 0.0431, "RA_OF_ASC_NODE": 4.4427, "ARG_OF_PERICENTER": 273.676, "MEAN_ANOMALY": 164.1359, "EPHEMERIS_TYPE": 0, "CLASSIFICATION_TYPE": "U", "NORAD_CAT_ID": 39617, "ELEMENT_SET_NO": 999, "REV_AT_EPOCH": 4289, "BSTAR": 0, "MEAN_MOTION_DOT": 1.59e-06, "MEAN_MOTION_DDOT": 0}, "tle": {"line1": "1 39617U 14011B   25355.91118977  .00000159  00000+0  00000+0 0  9999", "line2": "2 39617   0.0431   4.4427 0004469 273.6760 164.1359  1.00270090 42892"}}, "geometry": {"type": "Point", "coordinates": [-71.87692498093129, -0.067192345247856]}}]}